{
  "type": "FeatureCollection",
  "features": [
    {
      "type": "Feature",
      "properties": {
        "norad_id": 41330,
        "name": "COSMOS 2514 (751)",
        "group": "gnss",
        "lat": -17.813639023910365,
        "lon": -49.60272861742737,
        "alt_km": 19147.50532838532,
        "timestamp": "2025-12-25T03:55:56.599469+00:00",
        "meta_object_name": "COSMOS 2514 (751)",
        "meta_object_id": "2016-008A",
        "meta_epoch": "2025-12-23T18:45:46.770912",
        "meta_mean_motion": 2.13102642,
        "meta_eccentricity": 0.00116336,
        "meta_inclination": 65.1274,
        "meta_ra_of_asc_node": 319.026,
        "meta_arg_of_pericenter": 220.0869,
        "meta_mean_anomaly": 139.8272,
        "meta_ephemeris_type": 0,
        "meta_classification_type": "U",
        "meta_norad_cat_id": 41330,
        "meta_element_set_no": 999,
        "meta_rev_at_epoch": 7688,
        "meta_bstar": 0,
        "meta_mean_motion_dot": -3.5e-07,
        "meta_mean_motion_ddot": 0,
        "tle_line1": "1 41330U 16008A   25357.78179133 -.00000035  00000+0  00000+0 0  9994",
        "tle_line2": "2 41330  65.1274 319.0260 0011633 220.0869 139.8272  2.13102642 76882"
      },
      "geometry": {
        "type": "Point",
        "coordinates": [
          -49.60272861742737,
          -17.813639023910365
        ]
      }
    },
    {
      "type": "Feature",
      "properties": {
        "norad_id": 41384,
        "name": "IRNSS-1F",
        "group": "gnss",
        "lat": 4.893460421377991,
        "lon": -174.83263119371153,
        "alt_km": 35796.52687616902,
        "timestamp": "2025-12-25T03:55:56.599481+00:00",
        "meta_object_name": "IRNSS-1F",
        "meta_object_id": "2016-015A",
        "meta_epoch": "2025-12-23T23:33:29.527200",
        "meta_mean_motion": 1.00278072,
        "meta_eccentricity": 0.00226621,
        "meta_inclination": 4.9093,
        "meta_ra_of_asc_node": 101.0199,
        "meta_arg_of_pericenter": 182.1246,
        "meta_mean_anomaly": 195.4962,
        "meta_ephemeris_type": 0,
        "meta_classification_type": "U",
        "meta_norad_cat_id": 41384,
        "meta_element_set_no": 999,
        "meta_rev_at_epoch": 3591,
        "meta_bstar": 0,
        "meta_mean_motion_dot": 1.77e-06,
        "meta_mean_motion_ddot": 0,
        "tle_line1": "1 41384U 16015A   25357.98159175  .00000177  00000+0  00000+0 0  9993",
        "tle_line2": "2 41384   4.9093 101.0199 0022662 182.1246 195.4962  1.00278072 35911"
      },
      "geometry": {
        "type": "Point",
        "coordinates": [
          -174.83263119371153,
          4.893460421377991
        ]
      }
    },
    {
      "type": "Feature",
      "properties": {
        "norad_id": 41434,
        "name": "BEIDOU-2 IGSO-6 (C13)",
        "group": "gnss",
        "lat": -22.68763691018146,
        "lon": -126.21361540853253,
        "alt_km": 35549.3460908828,
        "timestamp": "2025-12-25T03:55:56.599493+00:00",
        "meta_object_name": "BEIDOU-2 IGSO-6 (C13)",
        "meta_object_id": "2016-021A",
        "meta_epoch": "2025-12-24T14:08:03.685920",
        "meta_mean_motion": 1.00290884,
        "meta_eccentricity": 0.0060832,
        "meta_inclination": 59.9811,
        "meta_ra_of_asc_node": 39.7798,
        "meta_arg_of_pericenter": 230.476,
        "meta_mean_anomaly": 128.7548,
        "meta_ephemeris_type": 0,
        "meta_classification_type": "U",
        "meta_norad_cat_id": 41434,
        "meta_element_set_no": 999,
        "meta_rev_at_epoch": 3572,
        "meta_bstar": 0,
        "meta_mean_motion_dot": -1.33e-06,
        "meta_mean_motion_ddot": 0,
        "tle_line1": "1 41434U 16021A   25358.58893155 -.00000133  00000+0  00000+0 0  9999",
        "tle_line2": "2 41434  59.9811  39.7798 0060832 230.4760 128.7548  1.00290884 35729"
      },
      "geometry": {
        "type": "Point",
        "coordinates": [
          -126.21361540853253,
          -22.68763691018146
        ]
      }
    },
    {
      "type": "Feature",
      "properties": {
        "norad_id": 41469,
        "name": "IRNSS-1G",
        "group": "gnss",
        "lat": -0.07796999193960923,
        "lon": -77.54304161099179,
        "alt_km": 35794.96332533837,
        "timestamp": "2025-12-25T03:55:56.599504+00:00",
        "meta_object_name": "IRNSS-1G",
        "meta_object_id": "2016-027A",
        "meta_epoch": "2025-12-24T15:25:42.685824",
        "meta_mean_motion": 1.0027416,
        "meta_eccentricity": 0.0002678,
        "meta_inclination": 4.7637,
        "meta_ra_of_asc_node": 101.7934,
        "meta_arg_of_pericenter": 327.1005,
        "meta_mean_anomaly": 25.5067,
        "meta_ephemeris_type": 0,
        "meta_classification_type": "U",
        "meta_norad_cat_id": 41469,
        "meta_element_set_no": 999,
        "meta_rev_at_epoch": 3542,
        "meta_bstar": 0,
        "meta_mean_motion_dot": -3.14e-06,
        "meta_mean_motion_ddot": 0,
        "tle_line1": "1 41469U 16027A   25358.64285516 -.00000314  00000+0  00000+0 0  9997",
        "tle_line2": "2 41469   4.7637 101.7934 0002678 327.1005  25.5067  1.00274160 35429"
      },
      "geometry": {
        "type": "Point",
        "coordinates": [
          -77.54304161099179,
          -0.07796999193960923
        ]
      }
    },
    {
      "type": "Feature",
      "properties": {
        "norad_id": 41549,
        "name": "GSAT0211 (GALILEO 14)",
        "group": "gnss",
        "lat": -1.9387335952942437,
        "lon": -134.85501721557472,
        "alt_km": 23211.393351849583,
        "timestamp": "2025-12-25T03:55:56.599516+00:00",
        "meta_object_name": "GSAT0211 (GALILEO 14)",
        "meta_object_id": "2016-030A",
        "meta_epoch": "2025-12-22T05:38:05.943264",
        "meta_mean_motion": 1.70473275,
        "meta_eccentricity": 0.00040882,
        "meta_inclination": 55.1491,
        "meta_ra_of_asc_node": 226.562,
        "meta_arg_of_pericenter": 17.521,
        "meta_mean_anomaly": 342.5988,
        "meta_ephemeris_type": 0,
        "meta_classification_type": "U",
        "meta_norad_cat_id": 41549,
        "meta_element_set_no": 999,
        "meta_rev_at_epoch": 5965,
        "meta_bstar": 0,
        "meta_mean_motion_dot": 7.3e-07,
        "meta_mean_motion_ddot": 0,
        "tle_line1": "1 41549U 16030A   25356.23479101  .00000073  00000+0  00000+0 0  9999",
        "tle_line2": "2 41549  55.1491 226.5620 0004088  17.5210 342.5988  1.70473275 59659"
      },
      "geometry": {
        "type": "Point",
        "coordinates": [
          -134.85501721557472,
          -1.9387335952942437
        ]
      }
    },
    {
      "type": "Feature",
      "properties": {
        "norad_id": 41550,
        "name": "GSAT0210 (GALILEO 13)",
        "group": "gnss",
        "lat": -16.068733174686386,
        "lon": 58.06995760153922,
        "alt_km": 23222.9877500563,
        "timestamp": "2025-12-25T03:55:56.599531+00:00",
        "meta_object_name": "GSAT0210 (GALILEO 13)",
        "meta_object_id": "2016-030B",
        "meta_epoch": "2025-12-23T01:53:26.064096",
        "meta_mean_motion": 1.704734,
        "meta_eccentricity": 5.527e-05,
        "meta_inclination": 55.1484,
        "meta_ra_of_asc_node": 226.5368,
        "meta_arg_of_pericenter": 180.205,
        "meta_mean_anomaly": 179.8969,
        "meta_ephemeris_type": 0,
        "meta_classification_type": "U",
        "meta_norad_cat_id": 41550,
        "meta_element_set_no": 999,
        "meta_rev_at_epoch": 5966,
        "meta_bstar": 0,
        "meta_mean_motion_dot": 7.3e-07,
        "meta_mean_motion_ddot": 0,
        "tle_line1": "1 41550U 16030B   25357.07877389  .00000073  00000+0  00000+0 0  9994",
        "tle_line2": "2 41550  55.1484 226.5368 0000552 180.2050 179.8969  1.70473400 59665"
      },
      "geometry": {
        "type": "Point",
        "coordinates": [
          58.06995760153922,
          -16.068733174686386
        ]
      }
    },
    {
      "type": "Feature",
      "properties": {
        "norad_id": 41586,
        "name": "BEIDOU-2 G7 (C03)",
        "group": "gnss",
        "lat": -0.4938334022549167,
        "lon": -96.68500707217002,
        "alt_km": 35808.290775226895,
        "timestamp": "2025-12-25T03:55:56.599557+00:00",
        "meta_object_name": "BEIDOU-2 G7 (C03)",
        "meta_object_id": "2016-037A",
        "meta_epoch": "2025-12-24T20:28:21.205344",
        "meta_mean_motion": 1.00268909,
        "meta_eccentricity": 0.0005195,
        "meta_inclination": 1.7846,
        "meta_ra_of_asc_node": 67.8918,
        "meta_arg_of_pericenter": 0.9994,
        "meta_mean_anomaly": 82.25,
        "meta_ephemeris_type": 0,
        "meta_classification_type": "U",
        "meta_norad_cat_id": 41586,
        "meta_element_set_no": 999,
        "meta_rev_at_epoch": 514,
        "meta_bstar": 0,
        "meta_mean_motion_dot": -3.32e-06,
        "meta_mean_motion_ddot": 0,
        "tle_line1": "1 41586U 16037A   25358.85302321 -.00000332  00000+0  00000+0 0  9995",
        "tle_line2": "2 41586   1.7846  67.8918 0005195   0.9994  82.2500  1.00268909  5144"
      },
      "geometry": {
        "type": "Point",
        "coordinates": [
          -96.68500707217002,
          -0.4938334022549167
        ]
      }
    }
  ]
}